{
  "type": "FeatureCollection",
  "features": [
    {
      "type": "Feature",
      "properties": {
        "norad_id": 33791,
        "name": "COSMOS 2251 DEB",
        "group": "cosmos-2251-debris",
        "lat": 11.904897419871041,
        "lon": 27.354909981298917,
        "alt_km": 768.2080693711305,
        "timestamp": "2025-12-20T03:42:47.786761+00:00",
        "meta_object_name": "COSMOS 2251 DEB",
        "meta_object_id": "1993-036AG",
        "meta_epoch": "2025-12-19T13:25:43.746240",
        "meta_mean_motion": 14.43157228,
        "meta_eccentricity": 0.003029,
        "meta_inclination": 74.1748,
        "meta_ra_of_asc_node": 25.0224,
        "meta_arg_of_pericenter": 221.0189,
        "meta_mean_anomaly": 300.3689,
        "meta_ephemeris_type": 0,
        "meta_classification_type": "U",
        "meta_norad_cat_id": 33791,
        "meta_element_set_no": 999,
        "meta_rev_at_epoch": 88150,
        "meta_bstar": 0.0005792,
        "meta_mean_motion_dot": 1.931e-05,
        "meta_mean_motion_ddot": 0,
        "tle_line1": "1 33791U 93036AG  25353.55953410  .00001931  00000+0  57920-3 0  9993",
        "tle_line2": "2 33791  74.1748  25.0224 0030290 221.0189 300.3689 14.43157228881506"
      },
      "geometry": {
        "type": "Point",
        "coordinates": [
          27.354909981298917,
          11.904897419871041
        ]
      }
    },
    {
      "type": "Feature",
      "properties": {
        "norad_id": 33792,
        "name": "COSMOS 2251 DEB",
        "group": "cosmos-2251-debris",
        "lat": -17.375336618365008,
        "lon": -31.68134291141051,
        "alt_km": 899.1830581210643,
        "timestamp": "2025-12-20T03:42:47.786772+00:00",
        "meta_object_name": "COSMOS 2251 DEB",
        "meta_object_id": "1993-036AH",
        "meta_epoch": "2025-12-19T10:31:05.428128",
        "meta_mean_motion": 13.45834151,
        "meta_eccentricity": 0.0427459,
        "meta_inclination": 73.9011,
        "meta_ra_of_asc_node": 334.6469,
        "meta_arg_of_pericenter": 38.065,
        "meta_mean_anomaly": 77.8711,
        "meta_ephemeris_type": 0,
        "meta_classification_type": "U",
        "meta_norad_cat_id": 33792,
        "meta_element_set_no": 999,
        "meta_rev_at_epoch": 82532,
        "meta_bstar": 0.00080414,
        "meta_mean_motion_dot": 8.14e-06,
        "meta_mean_motion_ddot": 0,
        "tle_line1": "1 33792U 93036AH  25353.43825727  .00000814  00000+0  80414-3 0  9993",
        "tle_line2": "2 33792  73.9011 334.6469 0427459  38.0650  77.8711 13.45834151825321"
      },
      "geometry": {
        "type": "Point",
        "coordinates": [
          -31.68134291141051,
          -17.375336618365008
        ]
      }
    },
    {
      "type": "Feature",
      "properties": {
        "norad_id": 33793,
        "name": "COSMOS 2251 DEB",
        "group": "cosmos-2251-debris",
        "lat": -23.737359883163524,
        "lon": -36.3008735076607,
        "alt_km": 794.5526563333578,
        "timestamp": "2025-12-20T03:42:47.786782+00:00",
        "meta_object_name": "COSMOS 2251 DEB",
        "meta_object_id": "1993-036AJ",
        "meta_epoch": "2025-12-19T20:36:01.325088",
        "meta_mean_motion": 14.27744552,
        "meta_eccentricity": 0.0078754,
        "meta_inclination": 73.9804,
        "meta_ra_of_asc_node": 136.9795,
        "meta_arg_of_pericenter": 285.6798,
        "meta_mean_anomaly": 197.1543,
        "meta_ephemeris_type": 0,
        "meta_classification_type": "U",
        "meta_norad_cat_id": 33793,
        "meta_element_set_no": 999,
        "meta_rev_at_epoch": 87308,
        "meta_bstar": 0.00050527,
        "meta_mean_motion_dot": 1.263e-05,
        "meta_mean_motion_ddot": 0,
        "tle_line1": "1 33793U 93036AJ  25353.85834867  .00001263  00000+0  50527-3 0  9996",
        "tle_line2": "2 33793  73.9804 136.9795 0078754 285.6798 197.1543 14.27744552873081"
      },
      "geometry": {
        "type": "Point",
        "coordinates": [
          -36.3008735076607,
          -23.737359883163524
        ]
      }
    },
    {
      "type": "Feature",
      "properties": {
        "norad_id": 33795,
        "name": "COSMOS 2251 DEB",
        "group": "cosmos-2251-debris",
        "lat": 63.92906361661898,
        "lon": 97.3503536984687,
        "alt_km": 536.4554438197802,
        "timestamp": "2025-12-20T03:42:47.786792+00:00",
        "meta_object_name": "COSMOS 2251 DEB",
        "meta_object_id": "1993-036AL",
        "meta_epoch": "2025-12-19T13:21:04.154112",
        "meta_mean_motion": 15.05734189,
        "meta_eccentricity": 0.0030632,
        "meta_inclination": 74.0324,
        "meta_ra_of_asc_node": 62.7583,
        "meta_arg_of_pericenter": 143.8166,
        "meta_mean_anomaly": 283.2245,
        "meta_ephemeris_type": 0,
        "meta_classification_type": "U",
        "meta_norad_cat_id": 33795,
        "meta_element_set_no": 999,
        "meta_rev_at_epoch": 90124,
        "meta_bstar": 0.0008032,
        "meta_mean_motion_dot": 0.00011726,
        "meta_mean_motion_ddot": 0,
        "tle_line1": "1 33795U 93036AL  25353.55629808  .00011726  00000+0  80320-3 0  9991",
        "tle_line2": "2 33795  74.0324  62.7583 0030632 143.8166 283.2245 15.05734189901248"
      },
      "geometry": {
        "type": "Point",
        "coordinates": [
          97.3503536984687,
          63.92906361661898
        ]
      }
    },
    {
      "type": "Feature",
      "properties": {
        "norad_id": 33797,
        "name": "COSMOS 2251 DEB",
        "group": "cosmos-2251-debris",
        "lat": 51.16146622206292,
        "lon": 41.678477284381835,
        "alt_km": 668.6857780585879,
        "timestamp": "2025-12-20T03:42:47.786803+00:00",
        "meta_object_name": "COSMOS 2251 DEB",
        "meta_object_id": "1993-036AN",
        "meta_epoch": "2025-12-19T11:29:44.843136",
        "meta_mean_motion": 14.57869848,
        "meta_eccentricity": 0.0060455,
        "meta_inclination": 74.0466,
        "meta_ra_of_asc_node": 22.151,
        "meta_arg_of_pericenter": 107.9936,
        "meta_mean_anomaly": 1.735,
        "meta_ephemeris_type": 0,
        "meta_classification_type": "U",
        "meta_norad_cat_id": 33797,
        "meta_element_set_no": 999,
        "meta_rev_at_epoch": 89083,
        "meta_bstar": 0.00025982,
        "meta_mean_motion_dot": 1.191e-05,
        "meta_mean_motion_ddot": 0,
        "tle_line1": "1 33797U 93036AN  25353.47899124  .00001191  00000+0  25982-3 0  9992",
        "tle_line2": "2 33797  74.0466  22.1510 0060455 107.9936   1.7350 14.57869848890838"
      },
      "geometry": {
        "type": "Point",
        "coordinates": [
          41.678477284381835,
          51.16146622206292
        ]
      }
    },
    {
      "type": "Feature",
      "properties": {
        "norad_id": 33798,
        "name": "COSMOS 2251 DEB",
        "group": "cosmos-2251-debris",
        "lat": -54.838918204129435,
        "lon": 98.10512304595298,
        "alt_km": 716.5475626619573,
        "timestamp": "2025-12-20T03:42:47.786813+00:00",
        "meta_object_name": "COSMOS 2251 DEB",
        "meta_object_id": "1993-036AP",
        "meta_epoch": "2025-12-19T20:15:20.971872",
        "meta_mean_motion": 14.4462273,
        "meta_eccentricity": 0.0092402,
        "meta_inclination": 74.029,
        "meta_ra_of_asc_node": 122.6727,
        "meta_arg_of_pericenter": 242.4984,
        "meta_mean_anomaly": 243.0738,
        "meta_ephemeris_type": 0,
        "meta_classification_type": "U",
        "meta_norad_cat_id": 33798,
        "meta_element_set_no": 999,
        "meta_rev_at_epoch": 88696,
        "meta_bstar": 0.00012749,
        "meta_mean_motion_dot": 4.35e-06,
        "meta_mean_motion_ddot": 0,
        "tle_line1": "1 33798U 93036AP  25353.84399273  .00000435  00000+0  12749-3 0  9991",
        "tle_line2": "2 33798  74.0290 122.6727 0092402 242.4984 243.0738 14.44622730886968"
      },
      "geometry": {
        "type": "Point",
        "coordinates": [
          98.10512304595298,
          -54.838918204129435
        ]
      }
    },
    {
      "type": "Feature",
      "properties": {
        "norad_id": 33799,
        "name": "COSMOS 2251 DEB",
        "group": "cosmos-2251-debris",
        "lat": 36.82896642690982,
        "lon": 79.56819524822093,
        "alt_km": 629.1298079259768,
        "timestamp": "2025-12-20T03:42:47.786824+00:00",
        "meta_object_name": "COSMOS 2251 DEB",
        "meta_object_id": "1993-036AQ",
        "meta_epoch": "2025-12-19T14:52:34.207104",
        "meta_mean_motion": 14.79698147,
        "meta_eccentricity": 0.0022784,
        "meta_inclination": 74.0325,
        "meta_ra_of_asc_node": 68.2393,
        "meta_arg_of_pericenter": 136.5216,
        "meta_mean_anomaly": 294.3275,
        "meta_ephemeris_type": 0,
        "meta_classification_type": "U",
        "meta_norad_cat_id": 33799,
        "meta_element_set_no": 999,
        "meta_rev_at_epoch": 88913,
        "meta_bstar": 0.00074895,
        "meta_mean_motion_dot": 5.621e-05,
        "meta_mean_motion_ddot": 0,
        "tle_line1": "1 33799U 93036AQ  25353.61984036  .00005621  00000+0  74895-3 0  9996",
        "tle_line2": "2 33799  74.0325  68.2393 0022784 136.5216 294.3275 14.79698147889139"
      },
      "geometry": {
        "type": "Point",
        "coordinates": [
          79.56819524822093,
          36.82896642690982
        ]
      }
    }
  ]
}